NORAD_CAT_ID,OBJECT_NAME,OBJECT_TYPE,EPOCH,MEAN_MOTION,ECCENTRICITY,INCLINATION,RA_OF_ASC_NODE,ARG_OF_PERICENTER,MEAN_ANOMALY,BSTAR,MEAN_MOTION_DOT,MEAN_MOTION_DDOT,TLE_LINE0,TLE_LINE1,TLE_LINE2,SEMIMAJOR_AXIS,PERIOD,APOGEE,PERIGEE,DECAYED
53905.0,STARLINK-5003,PAYLOAD,2023-06-09 05:42:29,15.08839161,0.0001088,53.216,143.4996,87.5111,272.6006,2.9867e-05,1.88e-06,0.0,0 STARLINK-5003,1 53905U 22119V   23160.23784248  .00000188  00000-0  29867-4 0  9990,2 53905  53.2160 143.4996 0001088  87.5111 272.6006 15.08839161 39767,6917.883,95.438,540.501,538.995,0.0
53905.0,STARLINK-5003,PAYLOAD,2023-06-10 10:19:26,15.08840435,0.0001082,53.2164,138.1469,86.8711,273.2405,3.8838e-05,3.3e-06,0.0,0 STARLINK-5003,1 53905U 22119V   23161.43016346  .00000330  00000-0  38838-4 0  9997,2 53905  53.2164 138.1469 0001082  86.8711 273.2405 15.08840435 40363,6917.879,95.438,540.493,538.996,0.0
53905.0,STARLINK-5003,PAYLOAD,2023-06-10 21:27:08,15.08833203,0.0001118,53.2168,136.0675,96.4363,263.6756,1.9454e-05,2.2e-07,0.0,0 STARLINK-5003,1 53905U 22119V   23161.89384978  .00000022  00000-0  19454-4 0  9997,2 53905  53.2168 136.0675 0001118  96.4363 263.6756 15.08833203 40438,6917.901,95.438,540.54,538.993,0.0
53905.0,STARLINK-5003,PAYLOAD,2023-06-10 23:02:31,15.08834108,0.0001092,53.217,135.7697,93.6718,266.4399,-1.2084e-05,-4.8e-06,0.0,0 STARLINK-5003,1 53905U 22119V   23161.96009090 -.00000480  00000-0 -12084-4 0  9996,2 53905  53.2170 135.7697 0001092  93.6718 266.4399 15.08834108 40029,6917.898,95.438,540.519,539.008,0.0
53905.0,STARLINK-5003,PAYLOAD,2023-06-11 08:34:50,15.08838529,0.0001084,53.2172,133.9857,92.1336,267.9781,2.1992e-05,6.2e-07,0.0,0 STARLINK-5003,1 53905U 22119V   23162.35752829  .00000062  00000-0  21992-4 0  9997,2 53905  53.2172 133.9857 0001084  92.1336 267.9781 15.08838529 40505,6917.885,95.438,540.5,539.0,0.0
53905.0,STARLINK-5003,PAYLOAD,2023-06-11 21:17:55,15.0883647,0.0001118,53.2173,131.6065,94.8513,265.2607,7.9622e-05,9.79e-06,0.0,0 STARLINK-5003,1 53905U 22119V   23162.88744934  .00000979  00000-0  79622-4 0  9993,2 53905  53.2173 131.6065 0001118  94.8513 265.2607 15.08836470 40585,6917.891,95.438,540.53,538.983,0.0
53905.0,STARLINK-5003,PAYLOAD,2023-06-12 02:04:04,15.08841177,0.000112,53.2174,130.7146,95.8492,264.2628,6.6811e-05,7.76e-06,0.0,0 STARLINK-5003,1 53905U 22119V   23163.08616713  .00000776  00000-0  66811-4 0  9990,2 53905  53.2174 130.7146 0001120  95.8492 264.2628 15.08841177 40612,6917.877,95.437,540.517,538.967,0.0
53905.0,STARLINK-5003,PAYLOAD,2023-06-12 14:47:10,15.08839115,0.0001048,53.2166,128.335,87.7482,272.363,7.4432e-05,8.97e-06,0.0,0 STARLINK-5003,1 53905U 22119V   23163.61608842  .00000897  00000-0  74432-4 0  9995,2 53905  53.2166 128.3350 0001048  87.7482 272.3630 15.08839115 40275,6917.883,95.438,540.473,539.023,0.0
53905.0,STARLINK-5003,PAYLOAD,2023-06-12 21:08:43,15.08830567,0.0001143,53.2171,127.1466,88.8786,271.2337,2.8728e-05,1.69e-06,0.0,0 STARLINK-5003,1 53905U 22119V   23163.88105636  .00000169  00000-0  28728-4 0  9996,2 53905  53.2171 127.1466 0001143  88.8786 271.2337 15.08830567 40736,6917.909,95.438,540.565,538.984,0.0
53905.0,STARLINK-5003,PAYLOAD,2023-06-13 06:41:01,15.08832379,0.0001439,53.2169,125.3618,100.3855,259.7299,9.1843e-05,1.174e-05,0.0,0 STARLINK-5003,1 53905U 22119V   23164.27849355  .00001174  00000-0  91843-4 0  9998,2 53905  53.2169 125.3618 0001439 100.3855 259.7299 15.08832379 40794,6917.904,95.438,540.764,538.773,0.0
53905.0,STARLINK-5003,PAYLOAD,2023-06-13 20:59:30,15.08836216,0.0001093,53.2177,122.6879,92.6671,267.4446,3.3588e-05,2.47e-06,0.0,0 STARLINK-5003,1 53905U 22119V   23164.87465378  .00000247  00000-0  33588-4 0  9995,2 53905  53.2177 122.6879 0001093  92.6671 267.4446 15.08836216 40881,6917.892,95.438,540.513,539.001,0.0
53905.0,STARLINK-5003,PAYLOAD,2023-06-14 00:10:16,15.08835985,0.0001217,53.218,122.0927,89.1766,270.9365,-2.7817e-06,-3.32e-06,0.0,0 STARLINK-5003,1 53905U 22119V   23165.00713585 -.00000332  00000-0 -27817-5 0  9993,2 53905  53.2180 122.0927 0001217  89.1766 270.9365 15.08835985 40484,6917.893,95.438,540.6,538.916,0.0
53905.0,STARLINK-5003,PAYLOAD,2023-06-14 06:31:48,15.08840547,0.0001406,53.218,120.9031,77.164,282.951,3.0297e-05,1.94e-06,0.0,0 STARLINK-5003,1 53905U 22119V   23165.27209316  .00000194  00000-0  30297-4 0  9993,2 53905  53.2180 120.9031 0001406  77.1640 282.9510 15.08840547 40941,6917.879,95.438,540.716,538.771,0.0
53905.0,STARLINK-5003,PAYLOAD,2023-06-15 03:11:49,15.0884253,0.0001261,53.2176,117.0351,107.7047,252.4083,2.8143e-05,1.6e-06,0.0,0 STARLINK-5003,1 53905U 22119V   23166.13321048  .00000160  00000-0  28143-4 0  9996,2 53905  53.2176 117.0351 0001261 107.7047 252.4083 15.08842530 40657,6917.873,95.437,540.61,538.865,0.0
53905.0,STARLINK-5003,PAYLOAD,2023-06-16 03:02:36,15.08845516,0.0001256,53.2175,112.5747,92.9444,267.1692,7.224e-05,8.62e-06,0.0,0 STARLINK-5003,1 53905U 22119V   23167.12680744  .00000862  00000-0  72240-4 0  9993,2 53905  53.2175 112.5747 0001256  92.9444 267.1692 15.08845516 41225,6917.864,95.437,540.597,538.86,0.0
53905.0,STARLINK-5003,PAYLOAD,2023-06-16 20:31:50,15.08809193,0.0001396,53.2167,109.3042,91.4839,268.6313,0.00042114,6.415e-05,0.0,0 STARLINK-5003,1 53905U 22119V   23167.85544922  .00006415  00000-0  42114-3 0  9996,2 53905  53.2167 109.3042 0001396  91.4839 268.6313 15.08809193 41334,6917.975,95.44,540.805,538.874,0.0
53905.0,STARLINK-5003,PAYLOAD,2023-06-16 23:42:37,15.08821264,0.0001359,53.2167,108.7098,92.8881,267.2267,0.00029039,4.334e-05,0.0,0 STARLINK-5003,1 53905U 22119V   23167.98792997  .00004334  00000-0  29039-3 0  9996,2 53905  53.2167 108.7098 0001359  92.8881 267.2267 15.08821264 40930,6917.938,95.439,540.743,538.863,0.0
53905.0,STARLINK-5003,PAYLOAD,2023-06-17 06:04:09,15.08849607,0.0001246,53.2174,107.5231,91.6958,268.4177,3.2163e-05,2.24e-06,0.0,0 STARLINK-5003,1 53905U 22119V   23168.25288430  .00000224  00000-0  32163-4 0  9996,2 53905  53.2174 107.5231 0001246  91.6958 268.4177 15.08849607 40979,6917.851,95.437,540.578,538.854,0.0
53905.0,STARLINK-5003,PAYLOAD,2023-06-17 12:25:43,15.08828234,0.0001253,53.217,106.3297,93.8805,266.233,-8.1256e-05,-1.58e-05,0.0,0 STARLINK-5003,1 53905U 22119V   23168.51786084 -.00001580  00000-0 -81256-4 0  9998,2 53905  53.2170 106.3297 0001253  93.8805 266.2330 15.08828234 41439,6917.916,95.438,540.648,538.915,0.0
53905.0,STARLINK-5003,PAYLOAD,2023-06-18 12:16:30,15.08833696,0.0001292,53.2177,101.8725,104.1234,255.9902,-3.3876e-05,-8.27e-06,0.0,0 STARLINK-5003,1 53905U 22119V   23169.51146239 -.00000827  00000-0 -33876-4 0  9999,2 53905  53.2177 101.8725 0001292 104.1234 255.9902 15.08833696 41581,6917.9,95.438,540.658,538.871,0.0
53905.0,STARLINK-5003,PAYLOAD,2023-06-18 18:38:02,15.08836219,0.0001176,53.2176,100.6816,95.8577,264.2549,1.8048e-05,-1e-08,0.0,0 STARLINK-5003,1 53905U 22119V   23169.77642034 -.00000001  00000-0  18048-4 0  9998,2 53905  53.2176 100.6816 0001176  95.8577 264.2549 15.08836219 41208,6917.892,95.438,540.57,538.943,0.0
53905.0,STARLINK-5003,PAYLOAD,2023-06-19 04:10:21,15.08843178,0.0001189,53.2179,98.8977,94.475,265.6378,7.3608e-05,8.84e-06,0.0,0 STARLINK-5003,1 53905U 22119V   23170.17385524  .00000884  00000-0  73608-4 0  9993,2 53905  53.2179  98.8977 0001189  94.4750 265.6378 15.08843178 41262,6917.871,95.437,540.558,538.913,0.0
53905.0,STARLINK-5003,PAYLOAD,2023-06-19 12:07:16,15.08842117,0.0001181,53.218,97.4109,92.7783,267.3344,3.2269e-05,2.26e-06,0.0,0 STARLINK-5003,1 53905U 22119V   23170.50505733  .00000226  00000-0  32269-4 0  9994,2 53905  53.2180  97.4109 0001181  92.7783 267.3344 15.08842117 41731,6917.874,95.437,540.556,538.922,0.0
53905.0,STARLINK-5003,PAYLOAD,2023-06-20 04:01:08,15.08836109,0.0001131,53.2179,94.4369,93.8058,266.3063,9.7542e-05,1.265e-05,0.0,0 STARLINK-5003,1 53905U 22119V   23171.16746274  .00001265  00000-0  97542-4 0  9993,2 53905  53.2179  94.4369 0001131  93.8058 266.3063 15.08836109 41412,6917.892,95.438,540.54,538.975,0.0
53905.0,STARLINK-5003,PAYLOAD,2023-06-20 11:58:04,15.0883997,0.0001123,53.2178,92.9497,85.2258,274.8863,0.00011303,1.512e-05,0.0,0 STARLINK-5003,1 53905U 22119V   23171.49866059  .00001512  00000-0  11303-3 0  9998,2 53905  53.2178  92.9497 0001123  85.2258 274.8863 15.08839970 41886,6917.88,95.438,540.522,538.969,0.0
53905.0,STARLINK-5003,PAYLOAD,2023-06-21 02:16:32,15.08845167,0.0001234,53.2179,90.275,100.0567,260.0565,9.3911e-05,1.207e-05,0.0,0 STARLINK-5003,1 53905U 22119V   23172.09481755  .00001207  00000-0  93911-4 0  9998,2 53905  53.2179  90.2750 0001234 100.0567 260.0565 15.08845167 41557,6917.865,95.437,540.583,538.876,0.0
53905.0,STARLINK-5003,PAYLOAD,2023-06-21 11:48:51,15.08845172,0.0001133,53.2178,88.49,90.2585,269.8537,7.0338e-06,-1.76e-06,0.0,0 STARLINK-5003,1 53905U 22119V   23172.49225893 -.00000176  00000-0  70338-5 0  9995,2 53905  53.2178  88.4900 0001133  90.2585 269.8537 15.08845172 42036,6917.865,95.437,540.513,538.946,0.0
53905.0,STARLINK-5003,PAYLOAD,2023-06-22 00:31:56,15.08835615,0.0001324,53.218,86.1094,90.3272,269.7872,6.9455e-06,-1.77e-06,0.0,0 STARLINK-5003,1 53905U 22119V   23173.02218597 -.00000177  00000-0  69455-5 0  9997,2 53905  53.2180  86.1094 0001324  90.3272 269.7872 15.08835615 41697,6917.894,95.438,540.675,538.843,0.0
53905.0,STARLINK-5003,PAYLOAD,2023-06-22 11:39:38,15.08841367,0.0001266,53.2174,84.0279,90.4747,269.6391,2.8227e-05,1.61e-06,0.0,0 STARLINK-5003,1 53905U 22119V   23173.48586168  .00000161  00000-0  28227-4 0  9992,2 53905  53.2174  84.0279 0001266  90.4747 269.6391 15.08841367 41769,6917.876,95.437,540.617,538.865,0.0
53905.0,STARLINK-5003,PAYLOAD,2023-06-23 03:33:29,15.08850344,0.0001285,53.2178,81.0546,91.0003,269.1137,8.3097e-05,1.035e-05,0.0,0 STARLINK-5003,1 53905U 22119V   23174.14825362  .00001035  00000-0  83097-4 0  9995,2 53905  53.2178  81.0546 0001285  91.0003 269.1137 15.08850344 41869,6917.849,95.437,540.603,538.825,0.0
